[{"OBJECT_NAME":"STARLINK-36714","OBJECT_ID":"2026-036W","EPOCH":"2026-03-14T22:00:01.999584","MEAN_MOTION":15.65986725,"ECCENTRICITY":0.00014227,"INCLINATION":42.9993,"RA_OF_ASC_NODE":217.8387,"ARG_OF_PERICENTER":285.2441,"MEAN_ANOMALY":208.8321,"EPHEMERIS_TYPE":0,"CLASSIFICATION_TYPE":"U","NORAD_CAT_ID":67924,"ELEMENT_SET_NO":999,"REV_AT_EPOCH":448,"BSTAR":-0.020576588,"MEAN_MOTION_DOT":-0.01914258,"MEAN_MOTION_DDOT":0},{"OBJECT_NAME":"STARLINK-36726","OBJECT_ID":"2026-036X","EPOCH":"2026-03-14T22:00:01.999584","MEAN_MOTION":15.56409927,"ECCENTRICITY":0.00017112,"INCLINATION":42.9996,"RA_OF_ASC_NODE":218.2529,"ARG_OF_PERICENTER":274.9277,"MEAN_ANOMALY":52.2077,"EPHEMERIS_TYPE":0,"CLASSIFICATION_TYPE":"U","NORAD_CAT_ID":67925,"ELEMENT_SET_NO":999,"REV_AT_EPOCH":448,"BSTAR":-0.028907938,"MEAN_MOTION_DOT":-0.01856862,"MEAN_MOTION_DDOT":0},{"OBJECT_NAME":"STARLINK-36758","OBJECT_ID":"2026-036Y","EPOCH":"2026-03-14T22:00:01.999584","MEAN_MOTION":15.63429478,"ECCENTRICITY":0.00014864,"INCLINATION":42.9992,"RA_OF_ASC_NODE":217.9113,"ARG_OF_PERICENTER":287.6397,"MEAN_ANOMALY":176.8979,"EPHEMERIS_TYPE":0,"CLASSIFICATION_TYPE":"U","NORAD_CAT_ID":67926,"ELEMENT_SET_NO":999,"REV_AT_EPOCH":448,"BSTAR":-0.02272335,"MEAN_MOTION_DOT":-0.01908074,"MEAN_MOTION_DDOT":0},{"OBJECT_NAME":"STARLINK-36728","OBJECT_ID":"2026-036Z","EPOCH":"2026-03-14T22:00:01.999584","MEAN_MOTION":15.66861933,"ECCENTRICITY":0.00013956,"INCLINATION":42.9995,"RA_OF_ASC_NODE":217.7659,"ARG_OF_PERICENTER":282.4915,"MEAN_ANOMALY":240.4289,"EPHEMERIS_TYPE":0,"CLASSIFICATION_TYPE":"U","NORAD_CAT_ID":67927,"ELEMENT_SET_NO":999,"REV_AT_EPOCH":448,"BSTAR":-0.019853536,"MEAN_MOTION_DOT":-0.01914193,"MEAN_MOTION_DDOT":0},{"OBJECT_NAME":"STARLINK-36771","OBJECT_ID":"2026-036AA","EPOCH":"2026-03-14T22:00:01.999584","MEAN_MOTION":15.6510373,"ECCENTRICITY":0.00014047,"INCLINATION":42.9993,"RA_OF_ASC_NODE":217.8369,"ARG_OF_PERICENTER":285.809,"MEAN_ANOMALY":208.5485,"EPHEMERIS_TYPE":0,"CLASSIFICATION_TYPE":"U","NORAD_CAT_ID":67928,"ELEMENT_SET_NO":999,"REV_AT_EPOCH":448,"BSTAR":-0.021296909,"MEAN_MOTION_DOT":-0.01911903,"MEAN_MOTION_DDOT":0},{"OBJECT_NAME":"STARLINK-36809","OBJECT_ID":"2026-036AB","EPOCH":"2026-03-14T22:00:01.999584","MEAN_MOTION":15.65127248,"ECCENTRICITY":0.00014671,"INCLINATION":42.999,"RA_OF_ASC_NODE":217.8142,"ARG_OF_PERICENTER":286.7948,"MEAN_ANOMALY":216.4615,"EPHEMERIS_TYPE":0,"CLASSIFICATION_TYPE":"U","NORAD_CAT_ID":67929,"ELEMENT_SET_NO":999,"REV_AT_EPOCH":448,"BSTAR":-0.021278577,"MEAN_MOTION_DOT":-0.01912097,"MEAN_MOTION_DDOT":0},{"OBJECT_NAME":"STARLINK-36865","OBJECT_ID":"2026-036AC","EPOCH":"2026-03-14T22:00:01.999584","MEAN_MOTION":15.69731093,"ECCENTRICITY":0.00013821,"INCLINATION":42.9997,"RA_OF_ASC_NODE":217.6486,"ARG_OF_PERICENTER":277.8261,"MEAN_ANOMALY":291.828,"EPHEMERIS_TYPE":0,"CLASSIFICATION_TYPE":"U","NORAD_CAT_ID":67930,"ELEMENT_SET_NO":999,"REV_AT_EPOCH":448,"BSTAR":-0.01762769,"MEAN_MOTION_DOT":-0.01914527,"MEAN_MOTION_DDOT":0},{"OBJECT_NAME":"STARLINK-36781","OBJECT_ID":"2026-036AD","EPOCH":"2026-03-14T22:00:01.999584","MEAN_MOTION":15.69139226,"ECCENTRICITY":0.00012914,"INCLINATION":42.9994,"RA_OF_ASC_NODE":217.6755,"ARG_OF_PERICENTER":278.3855,"MEAN_ANOMALY":280.5546,"EPHEMERIS_TYPE":0,"CLASSIFICATION_TYPE":"U","NORAD_CAT_ID":67931,"ELEMENT_SET_NO":999,"REV_AT_EPOCH":448,"BSTAR":-0.018101163,"MEAN_MOTION_DOT":-0.01917323,"MEAN_MOTION_DDOT":0},{"OBJECT_NAME":"STARLINK-36301","OBJECT_ID":"2026-037A","EPOCH":"2026-03-14T22:41:11.829984","MEAN_MOTION":15.82125543,"ECCENTRICITY":0.00028822,"INCLINATION":42.9975,"RA_OF_ASC_NODE":166.3682,"ARG_OF_PERICENTER":54.0523,"MEAN_ANOMALY":306.0615,"EPHEMERIS_TYPE":0,"CLASSIFICATION_TYPE":"U","NORAD_CAT_ID":67932,"ELEMENT_SET_NO":999,"REV_AT_EPOCH":408,"BSTAR":0.0026233178,"MEAN_MOTION_DOT":0.00594514,"MEAN_MOTION_DDOT":0},{"OBJECT_NAME":"STARLINK-36852","OBJECT_ID":"2026-037B","EPOCH":"2026-03-14T22:00:01.999584","MEAN_MOTION":15.77540683,"ECCENTRICITY":0.00013139,"INCLINATION":42.9994,"RA_OF_ASC_NODE":166.5553,"ARG_OF_PERICENTER":280.5447,"MEAN_ANOMALY":272.0982,"EPHEMERIS_TYPE":0,"CLASSIFICATION_TYPE":"U","NORAD_CAT_ID":67933,"ELEMENT_SET_NO":999,"REV_AT_EPOCH":403,"BSTAR":-0.013091553,"MEAN_MOTION_DOT":-0.01948422,"MEAN_MOTION_DDOT":0},{"OBJECT_NAME":"STARLINK-36861","OBJECT_ID":"2026-037C","EPOCH":"2026-03-14T15:04:26.969952","MEAN_MOTION":15.82059687,"ECCENTRICITY":0.00016536,"INCLINATION":42.9977,"RA_OF_ASC_NODE":168.2912,"ARG_OF_PERICENTER":275.3765,"MEAN_ANOMALY":84.6918,"EPHEMERIS_TYPE":0,"CLASSIFICATION_TYPE":"U","NORAD_CAT_ID":67934,"ELEMENT_SET_NO":999,"REV_AT_EPOCH":403,"BSTAR":0.0022241191,"MEAN_MOTION_DOT":0.004967,"MEAN_MOTION_DDOT":0},{"OBJECT_NAME":"STARLINK-36860","OBJECT_ID":"2026-037D","EPOCH":"2026-03-14T16:34:16.510368","MEAN_MOTION":15.8214596,"ECCENTRICITY":0.00015644,"INCLINATION":42.9974,"RA_OF_ASC_NODE":167.8983,"ARG_OF_PERICENTER":303.672,"MEAN_ANOMALY":56.4003,"EPHEMERIS_TYPE":0,"CLASSIFICATION_TYPE":"U","NORAD_CAT_ID":67935,"ELEMENT_SET_NO":999,"REV_AT_EPOCH":404,"BSTAR":0.0013985209,"MEAN_MOTION_DOT":0.00306466,"MEAN_MOTION_DDOT":0},{"OBJECT_NAME":"STARLINK-36848","OBJECT_ID":"2026-037E","EPOCH":"2026-03-14T16:32:09.365856","MEAN_MOTION":15.81862945,"ECCENTRICITY":0.00019559,"INCLINATION":42.9972,"RA_OF_ASC_NODE":167.8849,"ARG_OF_PERICENTER":0.4471,"MEAN_ANOMALY":359.6402,"EPHEMERIS_TYPE":0,"CLASSIFICATION_TYPE":"U","NORAD_CAT_ID":67936,"ELEMENT_SET_NO":999,"REV_AT_EPOCH":404,"BSTAR":-0.00069877644,"MEAN_MOTION_DOT":-0.00144226,"MEAN_MOTION_DDOT":0},{"OBJECT_NAME":"STARLINK-36370","OBJECT_ID":"2026-037F","EPOCH":"2026-03-14T16:33:11.867616","MEAN_MOTION":15.82135579,"ECCENTRICITY":0.00015794,"INCLINATION":42.9979,"RA_OF_ASC_NODE":167.8928,"ARG_OF_PERICENTER":263.6893,"MEAN_ANOMALY":96.3799,"EPHEMERIS_TYPE":0,"CLASSIFICATION_TYPE":"U","NORAD_CAT_ID":67937,"ELEMENT_SET_NO":999,"REV_AT_EPOCH":404,"BSTAR":0.0012390325,"MEAN_MOTION_DOT":0.00270175,"MEAN_MOTION_DDOT":0},{"OBJECT_NAME":"STARLINK-36371","OBJECT_ID":"2026-037G","EPOCH":"2026-03-14T15:00:07.978176","MEAN_MOTION":15.82131193,"ECCENTRICITY":0.00013536,"INCLINATION":42.9978,"RA_OF_ASC_NODE":168.2664,"ARG_OF_PERICENTER":282.9086,"MEAN_ANOMALY":77.1634,"EPHEMERIS_TYPE":0,"CLASSIFICATION_TYPE":"U","NORAD_CAT_ID":67938,"ELEMENT_SET_NO":999,"REV_AT_EPOCH":403,"BSTAR":0.001280259,"MEAN_MOTION_DOT":0.00279427,"MEAN_MOTION_DDOT":0},{"OBJECT_NAME":"STARLINK-36246","OBJECT_ID":"2026-037H","EPOCH":"2026-03-14T16:29:57.665472","MEAN_MOTION":15.82170757,"ECCENTRICITY":0.00014115,"INCLINATION":42.9978,"RA_OF_ASC_NODE":167.874,"ARG_OF_PERICENTER":273.0125,"MEAN_ANOMALY":87.0585,"EPHEMERIS_TYPE":0,"CLASSIFICATION_TYPE":"U","NORAD_CAT_ID":67939,"ELEMENT_SET_NO":999,"REV_AT_EPOCH":404,"BSTAR":0.0015770531,"MEAN_MOTION_DOT":0.00347735,"MEAN_MOTION_DDOT":0}]
